[{"OBJECT_NAME":"STARLINK-6244","OBJECT_ID":"2023-065AX","EPOCH":"2026-03-09T22:00:01.999584","MEAN_MOTION":15.12668669,"ECCENTRICITY":0.00022746,"INCLINATION":43.0001,"RA_OF_ASC_NODE":221.6277,"ARG_OF_PERICENTER":280.106,"MEAN_ANOMALY":119.3874,"EPHEMERIS_TYPE":0,"CLASSIFICATION_TYPE":"U","NORAD_CAT_ID":56548,"ELEMENT_SET_NO":999,"REV_AT_EPOCH":577,"BSTAR":0.0065491588,"MEAN_MOTION_DOT":0.00118316,"MEAN_MOTION_DDOT":0},{"OBJECT_NAME":"OBJECT D","OBJECT_ID":"2025-313D","EPOCH":"2026-03-09T21:56:57.808608","MEAN_MOTION":14.89111186,"ECCENTRICITY":0.01485836,"INCLINATION":97.5765,"RA_OF_ASC_NODE":143.4472,"ARG_OF_PERICENTER":297.1144,"MEAN_ANOMALY":61.4984,"EPHEMERIS_TYPE":0,"CLASSIFICATION_TYPE":"U","NORAD_CAT_ID":67251,"ELEMENT_SET_NO":999,"REV_AT_EPOCH":1062,"BSTAR":0.00021863983,"MEAN_MOTION_DOT":2.471e-5,"MEAN_MOTION_DDOT":0}]
